ONEWEB-0336             
1 49202U 21083S   26165.44008910  .00000019  00000+0  16763-4 0  9993
2 49202  87.8950 320.7747 0002232  93.4608 266.6777 13.13469897230552
ONEWEB-0337             
1 49203U 21083T   26165.45011082 -.00000179  00000+0 -52608-3 0  9995
2 49203  87.8948 320.7787 0002024  98.2941 261.8418 13.13470361230553
ONEWEB-0338             
1 49204U 21083U   26165.54113609  .00000040  00000+0  67524-4 0  9993
2 49204  87.9182 274.9762 0001667 102.7741 257.3579 13.20774138236460
ONEWEB-0339             
1 49205U 21083V   26165.45870629 -.00000291  00000+0 -83160-3 0  9999
2 49205  87.8949 320.7698 0001633 103.1542 256.9769 13.13471286230534
ONEWEB-0340             
1 49206U 21083W   26165.47784953  .00000040  00000+0  67966-4 0  9993
2 49206  87.9169 335.9942 0001972  91.2439 268.8920 13.18685429229617
ONEWEB-0341             
1 49207U 21083X   26165.48459579  .00000046  00000+0  84464-4 0  9996
2 49207  87.9162 335.9962 0002183 102.7471 257.3905 13.18685967229637
ONEWEB-0342             
1 49208U 21083Y   26165.54787160  .00000096  00000+0  20413-3 0  9992
2 49208  87.9192 274.9627 0001941 102.8777 257.2573 13.20771036236434
ONEWEB-0343             
1 49209U 21083Z   26165.49302957  .00000085  00000+0  18266-3 0  9995
2 49209  87.9166 335.9933 0001577 103.6734 256.4574 13.18686742229688
ONEWEB-0344             
1 49210U 21083AA  26165.45362146 -.00000183  00000+0 -53651-3 0  9997
2 49210  87.8940 320.7849 0002115 103.6475 256.4890 13.13472285230535
ONEWEB-0345             
1 49211U 21083AB  26165.44516045 -.00000122  00000+0 -36838-3 0  9997
2 49211  87.8960 320.7672 0002039 103.2956 256.8401 13.13470781230549
ONEWEB-0346             
1 49212U 21083AC  26165.48965406  .00000072  00000+0  14886-3 0  9992
2 49212  87.9159 335.9943 0002387  81.7337 278.4066 13.18686601229628
ONEWEB-0348             
1 49213U 21083AD  26165.53776857 -.00000034  00000+0 -11465-3 0  9999
2 49213  87.9194 274.9686 0002477  98.1497 261.9918 13.20770763236462
ONEWEB-0350             
1 49214U 21083AE  26165.46072154 -.00000321  00000+0 -92006-3 0  9990
2 49214  87.8956 320.7684 0002085 100.1251 260.0114 13.12943889230579
ONEWEB-0351             
1 49215U 21083AF  26165.60664433  .00000022  00000+0  23034-4 0  9996
2 49215  87.9195 274.9535 0001925 126.4508 233.6803 13.20770689236436
ONEWEB-0352             
1 49216U 21083AG  26165.43501386  .00000194  00000+0  49620-3 0  9993
2 49216  87.8951 320.7806 0001593 108.1821 251.9482 13.13470206230662
ONEWEB-0354             
1 49217U 21083AH  26165.55797354  .00000178  00000+0  40508-3 0  9997
2 49217  87.9195 274.9623 0002397 101.3585 258.7818 13.20773213236460
ONEWEB-0355             
1 49218U 21083AJ  26165.46392797 -.00000252  00000+0 -72439-3 0  9993
2 49218  87.8947 320.7763 0001848 103.6895 256.4440 13.13470143230546
ONEWEB-0357             
1 49219U 21083AK  26165.55460585  .00000161  00000+0  36347-3 0  9990
2 49219  87.9193 274.9571 0001929 106.3728 253.7617 13.20772856236460
ONEWEB-0332             
1 49279U 21090A   26165.63062230  .00000151  00000+0  37269-3 0  9991
2 49279  87.8959 290.2185 0001715 100.0039 260.1284 13.14502589227241
ONEWEB-0347             
1 49280U 21090B   26165.31723465  .00000117  00000+0  25659-3 0  9994
2 49280  87.9192 275.0125 0001730  98.9097 261.2232 13.20771205230669
ONEWEB-0349             
1 49281U 21090C   26165.57649481  .00000102  00000+0  21851-3 0  9992
2 49281  87.9195 274.9615 0002003 101.4155 258.7204 13.20772091229486
ONEWEB-0353             
1 49282U 21090D   26165.39435186  .00000049  00000+0  97637-4 0  9994
2 49282  87.8962 290.2613 0001642  98.7283 261.4032 13.14503319227212
ONEWEB-0356             
1 49283U 21090E   26165.57480522  .00000083  00000+0  17273-3 0  9994
2 49283  87.9195 274.9551 0002152  78.3729 281.7645 13.20773237229489
ONEWEB-0358             
1 49284U 21090F   26165.60668040  .00000007  00000+0 -15773-4 0  9993
2 49284  87.9195 274.9536 0002116  95.9938 264.1437 13.20237458230217
ONEWEB-0359             
1 49285U 21090G   26165.60174035 -.00000021  00000+0 -83222-4 0  9991
2 49285  87.9193 274.9496 0002252 100.1398 259.9990 13.20773128230193
ONEWEB-0360             
1 49286U 21090H   26165.59162962  .00001095  00000+0  26602-2 0  9993
2 49286  87.9194 274.9578 0002099 102.4560 257.6809 13.20782890229504
ONEWEB-0361             
1 49287U 21090J   26165.57311947  .00000036  00000+0  55754-4 0  9997
2 49287  87.9195 274.9599 0002101  98.7069 261.4302 13.20770750229956
ONEWEB-0362             
1 49288U 21090K   26165.37200158  .00000015  00000+0  62488-5 0  9997
2 49288  87.9167 305.5388 0001887 106.7940 253.3400 13.19724862226543
ONEWEB-0363             
1 49289U 21090L   26165.58826703  .00000002  00000+0 -26831-4 0  9999
2 49289  87.9194 274.9571 0002071  91.4151 268.7220 13.20770256229966
ONEWEB-0364             
1 49290U 21090M   26165.55123573  .00000080  00000+0  16393-3 0  9999
2 49290  87.9191 274.9724 0002005 100.9476 259.1883 13.20771544231095
